{
  "type": "FeatureCollection",
  "name": "demonstration_watershed",
  "crs": {"type": "name", "properties": {"name": "urn:ogc:def:crs:OGC:1.3:CRS84"}},
  "features": [
    {
      "type": "Feature",
      "properties": {"name": "Demonstration watershed"},
      "geometry": {
        "type": "Polygon",
        "coordinates": [[
          [-79.910, 36.020],
          [-79.875, 36.155],
          [-79.785, 36.175],
          [-79.685, 36.115],
          [-79.700, 36.015],
          [-79.790, 35.980],
          [-79.910, 36.020]
        ]]
      }
    }
  ]
}
